[{"OBJECT_NAME":"STARLINK-3645","OBJECT_ID":"2022-025AG","EPOCH":"2026-03-09T05:19:02.009856","MEAN_MOTION":15.08837507,"ECCENTRICITY":0.00013272,"INCLINATION":53.2184,"RA_OF_ASC_NODE":41.067,"ARG_OF_PERICENTER":81.2225,"MEAN_ANOMALY":278.8918,"EPHEMERIS_TYPE":0,"CLASSIFICATION_TYPE":"U","NORAD_CAT_ID":51986,"ELEMENT_SET_NO":999,"REV_AT_EPOCH":22099,"BSTAR":-2.4536897e-5,"MEAN_MOTION_DOT":-6.78e-6,"MEAN_MOTION_DDOT":0},{"OBJECT_NAME":"CZ-4C R\/B","OBJECT_ID":"2021-026B","EPOCH":"2026-03-09T16:37:41.696544","MEAN_MOTION":15.16445633,"ECCENTRICITY":0.00393855,"INCLINATION":97.7468,"RA_OF_ASC_NODE":117.371,"ARG_OF_PERICENTER":22.5612,"MEAN_ANOMALY":337.7341,"EPHEMERIS_TYPE":0,"CLASSIFICATION_TYPE":"U","NORAD_CAT_ID":48080,"ELEMENT_SET_NO":999,"REV_AT_EPOCH":27175,"BSTAR":0.00026802982,"MEAN_MOTION_DOT":5.244e-5,"MEAN_MOTION_DDOT":0}]
